[{"OBJECT_NAME":"JIAOTONG 5 (HEAD-2H)","OBJECT_ID":"2022-167K","EPOCH":"2026-03-09T23:22:06.822048","MEAN_MOTION":15.70872056,"ECCENTRICITY":0.00036843,"INCLINATION":97.6162,"RA_OF_ASC_NODE":251.2696,"ARG_OF_PERICENTER":321.7019,"MEAN_ANOMALY":38.3981,"EPHEMERIS_TYPE":0,"CLASSIFICATION_TYPE":"U","NORAD_CAT_ID":54691,"ELEMENT_SET_NO":999,"REV_AT_EPOCH":18142,"BSTAR":0.0011277683,"MEAN_MOTION_DOT":0.00142368,"MEAN_MOTION_DDOT":0},{"OBJECT_NAME":"STARLINK-11276 [DTC]","OBJECT_ID":"2024-175B","EPOCH":"2026-03-09T23:41:30.960960","MEAN_MOTION":15.69684035,"ECCENTRICITY":0.00016978,"INCLINATION":53.1599,"RA_OF_ASC_NODE":54.7702,"ARG_OF_PERICENTER":88.5732,"MEAN_ANOMALY":271.5481,"EPHEMERIS_TYPE":0,"CLASSIFICATION_TYPE":"U","NORAD_CAT_ID":61244,"ELEMENT_SET_NO":999,"REV_AT_EPOCH":8341,"BSTAR":3.8632361e-5,"MEAN_MOTION_DOT":4.088e-5,"MEAN_MOTION_DDOT":0}]
